EUTELSAT 7A             
1 28187U 04008A   25274.54289529  .00000107  00000+0  00000+0 0  9998
2 28187   5.1679  75.0812 0000843 113.2726 238.4181  1.00272537 78757
EUTELSAT 174A           
1 28924U 05052A   25274.30337721  .00000013  00000+0  00000+0 0  9995
2 28924   3.5576  79.7273 0006150 109.6997 104.1045  1.00270947 49739
EUTELSAT HOTBIRD 13B    
1 29270U 06032A   25274.85098559  .00000157  00000+0  00000+0 0  9991
2 29270   0.9878  85.0530 0003848  94.2350 171.0138  1.00269656 44713
EUTELSAT HOTBIRD 13C    
1 33459U 08065A   25274.63944241 -.00000098  00000+0  00000+0 0  9992
2 33459   2.2793  82.2447 0005125 129.8088  16.2860  1.00271763 44755
EUTELSAT 36B            
1 36101U 09065A   25274.08097130  .00000114  00000+0  00000+0 0  9993
2 36101   0.0564   1.4429 0005862 190.4152 257.8597  1.00271614 58111
EUTELSAT KA-SAT 9A      
1 37258U 10069A   25272.71689874  .00000065  00000+0  00000+0 0  9998
2 37258   0.0548 331.5356 0002819 189.4428 114.8465  1.00274015 41392
EUTELSAT 7 WEST A       
1 37816U 11051A   25274.22559647 -.00000058  00000+0  00000+0 0  9995
2 37816   0.0622   5.6444 0006400 184.4952 253.9994  1.00271926 51299
EUTELSAT 16A            
1 37836U 11057A   25274.83993256  .00000105  00000+0  00000+0 0  9990
2 37836   0.0650   6.2491 0005387 185.8858 137.0458  1.00272257  4736
